[{"OBJECT_NAME":"IRIDIUM 175","OBJECT_ID":"2019-002G","EPOCH":"2026-03-09T17:13:26.534208","MEAN_MOTION":14.7222941,"ECCENTRICITY":0.00025992,"INCLINATION":86.1541,"RA_OF_ASC_NODE":332.6473,"ARG_OF_PERICENTER":105.1664,"MEAN_ANOMALY":254.984,"EPHEMERIS_TYPE":0,"CLASSIFICATION_TYPE":"U","NORAD_CAT_ID":43928,"ELEMENT_SET_NO":999,"REV_AT_EPOCH":38460,"BSTAR":0.00018528315,"MEAN_MOTION_DOT":1.193e-5,"MEAN_MOTION_DDOT":0},{"OBJECT_NAME":"EDUSAT","OBJECT_ID":"2011-044A","EPOCH":"2026-03-09T22:52:30.156384","MEAN_MOTION":14.76325715,"ECCENTRICITY":0.00358193,"INCLINATION":98.2805,"RA_OF_ASC_NODE":324.1841,"ARG_OF_PERICENTER":78.1309,"MEAN_ANOMALY":345.7812,"EPHEMERIS_TYPE":0,"CLASSIFICATION_TYPE":"U","NORAD_CAT_ID":37788,"ELEMENT_SET_NO":999,"REV_AT_EPOCH":78188,"BSTAR":0.00020679176,"MEAN_MOTION_DOT":1.394e-5,"MEAN_MOTION_DDOT":0}]
